NORAD_CAT_ID,OBJECT_NAME,OBJECT_TYPE,EPOCH,MEAN_MOTION,ECCENTRICITY,INCLINATION,RA_OF_ASC_NODE,ARG_OF_PERICENTER,MEAN_ANOMALY,BSTAR,MEAN_MOTION_DOT,MEAN_MOTION_DDOT,TLE_LINE0,TLE_LINE1,TLE_LINE2,SEMIMAJOR_AXIS,PERIOD,APOGEE,PERIGEE,DECAYED
55658.0,STARLINK-5307,PAYLOAD,2024-03-20 17:56:18,14.98327993,0.0003233,70.0003,197.0504,271.5205,88.5583,-0.00010306,-1.322e-05,0.0,0 STARLINK-5307,1 55658U 23021AG  24080.74744111 -.00001322  00000-0 -10306-3 0  9993,2 55658  70.0003 197.0504 0003233 271.5205  88.5583 14.98327993 61100,6950.199,96.107,574.311,569.817,0.0
55658.0,STARLINK-5307,PAYLOAD,2024-03-21 00:20:51,14.98329251,0.0003037,70.0008,196.3773,271.4132,88.6679,-5.7053e-05,-7.74e-06,0.0,0 STARLINK-5307,1 55658U 23021AG  24081.01447996 -.00000774  00000-0 -57053-4 0  9996,2 55658  70.0008 196.3773 0003037 271.4132  88.6679 14.98329251 60841,6950.195,96.107,574.171,569.949,0.0
55658.0,STARLINK-5307,PAYLOAD,2024-03-21 11:33:46,14.98335115,0.0003147,70.0004,195.1984,271.8842,88.1956,1.5605e-05,9.3e-07,0.0,0 STARLINK-5307,1 55658U 23021AG  24081.48179368  .00000093  00000-0  15605-4 0  9991,2 55658  70.0004 195.1984 0003147 271.8842  88.1956 14.98335115 60919,6950.177,96.107,574.229,569.855,0.0
55658.0,STARLINK-5307,PAYLOAD,2024-03-21 14:46:02,14.98342369,0.0002722,70.0002,194.8607,267.8012,92.2836,-3.6345e-05,-5.27e-06,0.0,0 STARLINK-5307,1 55658U 23021AG  24081.61531012 -.00000527  00000-0 -36345-4 0  9992,2 55658  70.0002 194.8607 0002722 267.8012  92.2836 14.98342369 61235,6950.155,96.106,573.911,570.128,0.0
55658.0,STARLINK-5307,PAYLOAD,2024-03-21 17:58:18,14.98349591,0.0002978,70.0007,194.523,284.6417,75.4412,0.00019107,2.189e-05,0.0,0 STARLINK-5307,1 55658U 23021AG  24081.74881969  .00002189  00000-0  19107-3 0  9995,2 55658  70.0007 194.5230 0002978 284.6417  75.4412 14.98349591 60953,6950.132,96.106,574.067,569.928,0.0
55658.0,STARLINK-5307,PAYLOAD,2024-03-22 11:35:48,14.98323443,0.0002511,70.0025,192.6769,258.3176,101.7701,0.00013826,1.557e-05,0.0,0 STARLINK-5307,1 55658U 23021AG  24082.48319587  .00001557  00000-0  13826-3 0  9999,2 55658  70.0025 192.6769 0002511 258.3176 101.7701 14.98323443 61067,6950.213,96.107,573.823,570.333,0.0
55658.0,STARLINK-5307,PAYLOAD,2024-03-22 14:48:04,14.9832756,0.0003038,70.0006,192.3378,270.1927,89.8884,9.9823e-05,1.098e-05,0.0,0 STARLINK-5307,1 55658U 23021AG  24082.61671431  .00001098  00000-0  99823-4 0  9995,2 55658  70.0006 192.3378 0003038 270.1927  89.8884 14.98327560 61387,6950.2,96.107,574.177,569.954,0.0
55658.0,STARLINK-5307,PAYLOAD,2024-03-22 16:24:12,14.98326871,0.0002547,70.0023,192.1725,254.3506,105.7372,0.00013818,1.556e-05,0.0,0 STARLINK-5307,1 55658U 23021AG  24082.68347396  .00001556  00000-0  13818-3 0  9990,2 55658  70.0023 192.1725 0002547 254.3506 105.7372 14.98326871 61396,6950.203,96.107,573.838,570.297,0.0
55658.0,STARLINK-5307,PAYLOAD,2024-03-23 13:13:57,14.98323276,0.0002381,70.0021,189.9825,253.5309,106.5588,-0.00011943,-1.517e-05,0.0,0 STARLINK-5307,1 55658U 23021AG  24083.55136515 -.00001517  00000-0 -11943-3 0  9992,2 55658  70.0021 189.9825 0002381 253.5309 106.5588 14.98323276 61223,6950.214,96.107,573.734,570.424,0.0
55658.0,STARLINK-5307,PAYLOAD,2024-03-23 16:26:13,14.98328582,0.0002612,70.0012,189.6449,263.4019,96.6843,-0.0001019,-1.308e-05,0.0,0 STARLINK-5307,1 55658U 23021AG  24083.68488182 -.00001308  00000-0 -10190-3 0  9997,2 55658  70.0012 189.6449 0002612 263.4019  96.6843 14.98328582 61540,6950.197,96.107,573.878,570.247,0.0
55658.0,STARLINK-5307,PAYLOAD,2024-03-24 13:15:57,14.98339103,0.0002383,70.0035,187.4599,250.8133,109.2768,0.0001689,1.923e-05,0.0,0 STARLINK-5307,1 55658U 23021AG  24084.55274539  .00001923  00000-0  16890-3 0  9997,2 55658  70.0035 187.4599 0002383 250.8133 109.2768 14.98339103 61378,6950.165,96.106,573.686,570.374,0.0
55658.0,STARLINK-5307,PAYLOAD,2024-03-24 14:52:04,14.98343244,0.0002478,70.004,187.2928,217.3951,142.7036,0.00020932,2.406e-05,0.0,0 STARLINK-5307,1 55658U 23021AG  24084.61949972  .00002406  00000-0  20932-3 0  9993,2 55658  70.0040 187.2928 0002478 217.3951 142.7036 14.98343244 61684,6950.152,96.106,573.739,570.295,0.0
55658.0,STARLINK-5307,PAYLOAD,2024-03-24 16:28:12,14.98345957,0.0002229,70.0034,187.1229,233.3061,126.7894,0.00024102,2.785e-05,0.0,0 STARLINK-5307,1 55658U 23021AG  24084.68625738  .00002785  00000-0  24102-3 0  9994,2 55658  70.0034 187.1229 0002229 233.3061 126.7894 14.98345957 61399,6950.144,96.106,573.558,570.459,0.0
55658.0,STARLINK-5307,PAYLOAD,2024-03-25 00:28:54,14.98330829,0.0002341,70.0037,186.2789,259.7069,100.3826,6.3608e-05,6.66e-06,0.0,0 STARLINK-5307,1 55658U 23021AG  24085.02007133  .00000666  00000-0  63608-4 0  9997,2 55658  70.0037 186.2789 0002341 259.7069 100.3826 14.98330829 61449,6950.19,96.107,573.682,570.428,0.0
55658.0,STARLINK-5307,PAYLOAD,2024-03-25 16:30:15,14.98326793,0.0002733,70.001,184.5956,261.7848,98.3002,7.7775e-05,8.35e-06,0.0,0 STARLINK-5307,1 55658U 23021AG  24085.68767444  .00000835  00000-0  77775-4 0  9995,2 55658  70.0010 184.5956 0002733 261.7848  98.3002 14.98326793 61841,6950.203,96.107,573.967,570.168,0.0
55658.0,STARLINK-5307,PAYLOAD,2024-03-26 05:19:20,14.98328848,0.0002388,70.0026,183.2504,252.6645,107.4253,-0.00020559,-2.545e-05,0.0,0 STARLINK-5307,1 55658U 23021AG  24086.22176278 -.00002545  00000-0 -20559-3 0  9994,2 55658  70.0026 183.2504 0002388 252.6645 107.4253 14.98328848 61622,6950.196,96.107,573.721,570.402,0.0
55658.0,STARLINK-5307,PAYLOAD,2024-03-26 13:20:01,14.98323915,0.0002954,69.9999,182.4061,270.1989,89.8832,-0.00029715,-3.636e-05,0.0,0 STARLINK-5307,1 55658U 23021AG  24086.55556962 -.00003636  00000-0 -29715-3 0  9997,2 55658  69.9999 182.4061 0002954 270.1989  89.8832 14.98323915 61673,6950.212,96.107,574.13,570.024,0.0
55658.0,STARLINK-5307,PAYLOAD,2024-03-26 14:56:09,14.98323539,0.0002892,70.0003,182.238,268.6808,91.402,-0.00028565,-3.499e-05,0.0,0 STARLINK-5307,1 55658U 23021AG  24086.62232996 -.00003499  00000-0 -28565-3 0  9992,2 55658  70.0003 182.2380 0002892 268.6808  91.4020 14.98323539 61981,6950.213,96.107,574.088,570.068,0.0
55658.0,STARLINK-5307,PAYLOAD,2024-03-26 16:32:17,14.98324257,0.000279,70.0007,182.0702,265.86,94.224,-0.00026284,-3.227e-05,0.0,0 STARLINK-5307,1 55658U 23021AG  24086.68908925 -.00003227  00000-0 -26284-3 0  9995,2 55658  70.0007 182.0702 0002790 265.8600  94.2240 14.98324257 61991,6950.211,96.107,574.015,570.137,0.0
55658.0,STARLINK-5307,PAYLOAD,2024-03-26 22:56:48,14.9833627,0.000316,70.0004,181.3973,261.866,98.2141,-0.00023892,-2.943e-05,0.0,0 STARLINK-5307,1 55658U 23021AG  24086.95612002 -.00002943  00000-0 -23892-3 0  9999,2 55658  70.0004 181.3973 0003160 261.8660  98.2141 14.98336270 61738,6950.174,96.107,574.235,569.842,0.0
55658.0,STARLINK-5307,PAYLOAD,2024-03-27 13:22:00,14.98349782,0.0002395,70.0002,179.8815,254.571,105.5184,-0.00011861,-1.509e-05,0.0,0 STARLINK-5307,1 55658U 23021AG  24087.55695169 -.00001509  00000-0 -11861-3 0  9991,2 55658  70.0002 179.8815 0002395 254.5710 105.5184 14.98349782 61828,6950.132,96.106,573.661,570.332,0.0
55658.0,STARLINK-5307,PAYLOAD,2024-03-27 16:34:16,14.98335816,0.0003013,70.0004,179.5451,269.4793,90.6021,0.00025829,2.991e-05,0.0,0 STARLINK-5307,1 55658U 23021AG  24087.69047063  .00002991  00000-0  25829-3 0  9993,2 55658  70.0004 179.5451 0003013 269.4793  90.6021 14.98335816 61846,6950.175,96.107,574.134,569.946,0.0
55658.0,STARLINK-5307,PAYLOAD,2024-03-28 05:23:21,14.9832405,0.0002929,70.0007,178.1994,270.2215,89.8609,0.0002294,2.645e-05,0.0,0 STARLINK-5307,1 55658U 23021AG  24088.22455862  .00002645  00000-0  22940-3 0  9990,2 55658  70.0007 178.1994 0002929 270.2215  89.8609 14.98324050 61929,6950.211,96.107,574.112,570.041,0.0
55658.0,STARLINK-5307,PAYLOAD,2024-03-28 11:47:53,14.98328181,0.0002926,70.0008,177.5266,267.433,92.6495,0.00025952,3.005e-05,0.0,0 STARLINK-5307,1 55658U 23021AG  24088.49159619  .00003005  00000-0  25952-3 0  9997,2 55658  70.0008 177.5266 0002926 267.4330  92.6495 14.98328181 62260,6950.199,96.107,574.097,570.03,0.0
55658.0,STARLINK-5307,PAYLOAD,2024-03-28 16:36:17,14.98329612,0.0002524,70.0014,177.0214,263.121,96.9662,0.00027838,3.23e-05,0.0,0 STARLINK-5307,1 55658U 23021AG  24088.69187466  .00003230  00000-0  27838-3 0  9995,2 55658  70.0014 177.0214 0002524 263.1210  96.9662 14.98329612 61991,6950.194,96.107,573.813,570.305,0.0
55658.0,STARLINK-5307,PAYLOAD,2024-03-29 11:49:49,14.98397501,0.0003043,70.0014,175.0012,269.7285,90.3526,0.00058461,6.902e-05,0.0,0 STARLINK-5307,1 55658U 23021AG  24089.49293147  .00006902  00000-0  58461-3 0  9993,2 55658  70.0014 175.0012 0003043 269.7285  90.3526 14.98397501 62110,6949.984,96.103,573.964,569.734,0.0
55658.0,STARLINK-5307,PAYLOAD,2024-03-29 21:26:43,14.98320701,0.000272,70.0015,173.9916,275.7461,84.3388,-0.00028063,-3.439e-05,0.0,0 STARLINK-5307,1 55658U 23021AG  24089.89355840 -.00003439  00000-0 -28063-3 0  9995,2 55658  70.0015 173.9916 0002720 275.7461  84.3388 14.98320701 62471,6950.222,96.108,573.977,570.196,0.0
55658.0,STARLINK-5307,PAYLOAD,2024-03-30 05:27:24,14.98314814,0.0002949,70.0011,173.1503,267.1403,92.9419,-0.0002769,-3.394e-05,0.0,0 STARLINK-5307,1 55658U 23021AG  24090.22736197 -.00003394  00000-0 -27690-3 0  9997,2 55658  70.0011 173.1503 0002949 267.1403  92.9419 14.98314814 62226,6950.24,96.108,574.154,570.055,0.0
55658.0,STARLINK-5307,PAYLOAD,2024-03-30 13:28:04,14.98320384,0.0002941,70.0004,172.3078,266.7351,93.3472,-0.00023035,-2.84e-05,0.0,0 STARLINK-5307,1 55658U 23021AG  24090.56115855 -.00002840  00000-0 -23035-3 0  9990,2 55658  70.0004 172.3078 0002941 266.7351  93.3472 14.98320384 62273,6950.223,96.108,574.132,570.044,0.0
55658.0,STARLINK-5307,PAYLOAD,2024-03-31 03:53:16,14.98328771,0.0003107,70.0002,170.793,270.0819,89.9983,-7.1911e-05,-9.51e-06,0.0,0 STARLINK-5307,1 55658U 23021AG  24091.16199077 -.00000951  00000-0 -71911-4 0  9993,2 55658  70.0002 170.7930 0003107 270.0819  89.9983 14.98328771 62368,6950.197,96.107,574.221,569.902,0.0
